STARLINK-2481           
1 48138U 21027AY  26068.59406591  .00015170  00000+0  52293-3 0  9994
2 48138  53.1608 168.2401 0001377  84.9717 275.1441 15.30220377272460
YAOGAN-43 01G           
1 60464U 24148G   26068.44348481  .00010133  00000+0  35873-3 0  9993
2 60464  35.0006  62.0013 0007382 306.3543  53.6492 15.28332833 87004
